$$SOE
2459580.500000000, A.D. 2022-Jan-01 00:00:00.0000, 3.381425260949575E+08, 6.040582103550003E+08, 2.778128794980562E+07,
2459587.500000000, A.D. 2022-Jan-08 00:00:00.0000, 3.309422833315918E+08, 6.080645908045847E+08, 3.104086897869506E+07,
2459594.500000000, A.D. 2022-Jan-15 00:00:00.0000, 3.236937086964124E+08, 6.119822386747421E+08, 3.429592110174003E+07,
2459601.500000000, A.D. 2022-Jan-22 00:00:00.0000, 3.163979003949280E+08, 6.158106502476342E+08, 3.754597281589761E+07,
2459608.500000000, A.D. 2022-Jan-29 00:00:00.0000, 3.090559648261455E+08, 6.195493427750400E+08, 4.079055446879476E+07,
2459615.500000000, A.D. 2022-Feb-05 00:00:00.0000, 3.016690140183197E+08, 6.231978539009160E+08, 4.402919854398283E+07,
2459622.500000000, A.D. 2022-Feb-12 00:00:00.0000, 2.942381652360802E+08, 6.267557400068295E+08, 4.726143965971747E+07,
2459629.500000000, A.D. 2022-Feb-19 00:00:00.0000, 2.867645414347659E+08, 6.302225758491532E+08, 5.048681459615424E+07,
2459636.500000000, A.D. 2022-Feb-26 00:00:00.0000, 2.792492712508289E+08, 6.335979547646677E+08, 5.370486241185540E+07,
2459643.500000000, A.D. 2022-Mar-05 00:00:00.0000, 2.716934886877065E+08, 6.368814888275580E+08, 5.691512458423835E+07,
2459650.500000000, A.D. 2022-Mar-12 00:00:00.0000, 2.640983327191794E+08, 6.400728088921394E+08, 6.011714514786950E+07,
2459657.500000000, A.D. 2022-Mar-19 00:00:00.0000, 2.564649468814971E+08, 6.431715645495006E+08, 6.331047082598567E+07,
2459664.500000000, A.D. 2022-Mar-26 00:00:00.0000, 2.487944788769118E+08, 6.461774239923297E+08, 6.649465115232483E+07,
2459671.500000000, A.D. 2022-Apr-02 00:00:00.0000, 2.410880802566430E+08, 6.490900737323481E+08, 6.966923857213658E+07,
2459678.500000000, A.D. 2022-Apr-09 00:00:00.0000, 2.333469064555653E+08, 6.519092181755323E+08, 7.283378849752152E+07,
2459685.500000000, A.D. 2022-Apr-16 00:00:00.0000, 2.255721175360824E+08, 6.546345797096331E+08, 7.598785933755061E+07,
2459692.500000000, A.D. 2022-Apr-23 00:00:00.0000, 2.177648783727820E+08, 6.572659003884637E+08, 7.913101270793691E+07,
2459699.500000000, A.D. 2022-Apr-30 00:00:00.0000, 2.099263564078538E+08, 6.598029429674777E+08, 8.226281380807853E+07,
2459706.500000000, A.D. 2022-May-07 00:00:00.0000, 2.020577200398560E+08, 6.622454893173598E+08, 8.538283152316573E+07,
2459713.500000000, A.D. 2022-May-14 00:00:00.0000, 1.941601390356344E+08, 6.645933392545394E+08, 8.849063837217534E+07,
2459720.500000000, A.D. 2022-May-21 00:00:00.0000, 1.862347849348092E+08, 6.668463105474782E+08, 9.158581054997325E+07,
2459727.500000000, A.D. 2022-May-28 00:00:00.0000, 1.782828309682325E+08, 6.690042391399744E+08, 9.466792802901724E+07,
2459734.500000000, A.D. 2022-Jun-04 00:00:00.0000, 1.703054517677033E+08, 6.710669792788583E+08, 9.773657466965306E+07,
2459741.500000000, A.D. 2022-Jun-11 00:00:00.0000, 1.623038230118472E+08, 6.730344035485923E+08, 1.007913383259137E+08,
2459748.500000000, A.D. 2022-Jun-18 00:00:00.0000, 1.542791210471073E+08, 6.749064028264482E+08, 1.038318109443920E+08,
2459755.500000000, A.D. 2022-Jun-25 00:00:00.0000, 1.462325225135417E+08, 6.766828861255267E+08, 1.068575886508306E+08,
2459762.500000000, A.D. 2022-Jul-02 00:00:00.0000, 1.381652041097143E+08, 6.783637802603629E+08, 1.098682718068537E+08,
2459769.500000000, A.D. 2022-Jul-09 00:00:00.0000, 1.300783428872201E+08, 6.799490295126197E+08, 1.128634650156499E+08,
2459776.500000000, A.D. 2022-Jul-16 00:00:00.0000, 1.219731170200661E+08, 6.814385963802116E+08, 1.158427771703306E+08,
2459783.500000000, A.D. 2022-Jul-23 00:00:00.0000, 1.138507048510375E+08, 6.828324634876841E+08, 1.188058217530881E+08,
2459790.500000000, A.D. 2022-Jul-30 00:00:00.0000, 1.057122822992534E+08, 6.841306333035641E+08, 1.217522171034061E+08,
2459797.500000000, A.D. 2022-Aug-06 00:00:00.0000, 9.755902222756986E+07, 6.853331263130218E+08, 1.246815863784059E+08,
2459804.500000000, A.D. 2022-Aug-13 00:00:00.0000, 8.939209494695021E+07, 6.864399804006854E+08, 1.275935575061783E+08,
2459811.500000000, A.D. 2022-Aug-20 00:00:00.0000, 8.121266828866044E+07, 6.874512509401325E+08, 1.304877632350409E+08,
2459818.500000000, A.D. 2022-Aug-27 00:00:00.0000, 7.302190731237224E+07, 6.883670108635070E+08, 1.333638412132552E+08,
2459825.500000000, A.D. 2022-Sep-03 00:00:00.0000, 6.482097389804225E+07, 6.891873506010029E+08, 1.362214340676267E+08,
2459832.500000000, A.D. 2022-Sep-10 00:00:00.0000, 5.661102631172340E+07, 6.899123779145484E+08, 1.390601894748780E+08,
2459839.500000000, A.D. 2022-Sep-17 00:00:00.0000, 4.839321877489188E+07, 6.905422176243862E+08, 1.418797602230917E+08,
2459846.500000000, A.D. 2022-Sep-24 00:00:00.0000, 4.016870109794392E+07, 6.910770111780256E+08, 1.446798042535512E+08,
2459853.500000000, A.D. 2022-Oct-01 00:00:00.0000, 3.193861861804765E+07, 6.915169160395534E+08, 1.474599846590837E+08,
2459860.500000000, A.D. 2022-Oct-08 00:00:00.0000, 2.370411284881908E+07, 6.918621054216969E+08, 1.502199696440738E+08,
2459867.500000000, A.D. 2022-Oct-15 00:00:00.0000, 1.546632191026266E+07, 6.921127695601655E+08, 1.529594326294327E+08,
2459874.500000000, A.D. 2022-Oct-22 00:00:00.0000, 7.226378557732651E+06, 6.922691168463274E+08, 1.556780525646738E+08,
2459881.500000000, A.D. 2022-Oct-29 00:00:00.0000, -1.014591692386927E+06, 6.923313722244765E+08, 1.583755140056352E+08,
2459888.500000000, A.D. 2022-Nov-05 00:00:00.0000, -9.255470241157627E+06, 6.922997755953112E+08, 1.610515069891527E+08,
2459895.500000000, A.D. 2022-Nov-12 00:00:00.0000, -1.749514485430142E+07, 6.921745814933349E+08, 1.637057269883271E+08,
2459902.500000000, A.D. 2022-Nov-19 00:00:00.0000, -2.573250959732058E+07, 6.919560590841621E+08, 1.663378749361833E+08,
2459909.500000000, A.D. 2022-Nov-26 00:00:00.0000, -3.396646499624012E+07, 6.916444920844779E+08, 1.689476572610390E+08,
2459916.500000000, A.D. 2022-Dec-03 00:00:00.0000, -4.219591825789864E+07, 6.912401785932834E+08, 1.715347859173259E+08,
2459923.500000000, A.D. 2022-Dec-10 00:00:00.0000, -5.041978350420433E+07, 6.907434308532939E+08, 1.740989784091805E+08,
2459930.500000000, A.D. 2022-Dec-17 00:00:00.0000, -5.863698199558406E+07, 6.901545749176528E+08, 1.766399578024901E+08,
2459937.500000000, A.D. 2022-Dec-24 00:00:00.0000, -6.684644223421488E+07, 6.894739501562738E+08, 1.791574527099966E+08,
2459944.500000000, A.D. 2022-Dec-31 00:00:00.0000, -7.504709958943924E+07, 6.887019087094884E+08, 1.816511972254967E+08,
2459951.500000000, A.D. 2023-Jan-07 00:00:00.0000, -8.323789532271624E+07, 6.878388158516906E+08, 1.841209308746501E+08,
2459958.500000000, A.D. 2023-Jan-14 00:00:00.0000, -9.141777697903357E+07, 6.868850517621467E+08, 1.865663988035631E+08,
2459965.500000000, A.D. 2023-Jan-21 00:00:00.0000, -9.958570078936826E+07, 6.858410115302660E+08, 1.889873520049948E+08,
2459972.500000000, A.D. 2023-Jan-28 00:00:00.0000, -1.077406324165084E+08, 6.847071031997566E+08, 1.913835472298190E+08,
2459979.500000000, A.D. 2023-Feb-04 00:00:00.0000, -1.158815462530478E+08, 6.834837468800225E+08, 1.937547468506122E+08,
2459986.500000000, A.D. 2023-Feb-11 00:00:00.0000, -1.240074250666513E+08, 6.821713747317387E+08, 1.961007188264765E+08,
2459993.500000000, A.D. 2023-Feb-18 00:00:00.0000, -1.321172600557064E+08, 6.807704310037584E+08, 1.984212367077968E+08,
2460000.500000000, A.D. 2023-Feb-25 00:00:00.0000, -1.402100510524566E+08, 6.792813719599397E+08, 2.007160796438203E+08,
2460007.500000000, A.D. 2023-Mar-04 00:00:00.0000, -1.482848067712641E+08, 6.777046657151508E+08, 2.029850323854676E+08,
2460014.500000000, A.D. 2023-Mar-11 00:00:00.0000, -1.563405450731626E+08, 6.760407919814287E+08, 2.052278852810554E+08,
2460021.500000000, A.D. 2023-Mar-18 00:00:00.0000, -1.643762931993788E+08, 6.742902416752262E+08, 2.074444342568203E+08,
2460028.500000000, A.D. 2023-Mar-25 00:00:00.0000, -1.723910877702538E+08, 6.724535163388888E+08, 2.096344807599663E+08,
2460035.500000000, A.D. 2023-Apr-01 00:00:00.0000, -1.803839741248678E+08, 6.705311277700491E+08, 2.117978316576501E+08,
2460042.500000000, A.D. 2023-Apr-08 00:00:00.0000, -1.883540056166607E+08, 6.685235990842682E+08, 2.139342992486872E+08,
2460049.500000000, A.D. 2023-Apr-15 00:00:00.0000, -1.963002452018676E+08, 6.664314661050477E+08, 2.160437015121048E+08,
2460056.500000000, A.D. 2023-Apr-22 00:00:00.0000, -2.042217675114953E+08, 6.642552760290837E+08, 2.181258621771296E+08,
2460063.500000000, A.D. 2023-Apr-29 00:00:00.0000, -2.121176586722220E+08, 6.619955856196790E+08, 2.201806105479407E+08,
2460070.500000000, A.D. 2023-May-06 00:00:00.0000, -2.199870156367441E+08, 6.596529607101126E+08, 2.222077813904667E+08,
2460077.500000000, A.D. 2023-May-13 00:00:00.0000, -2.278289460003100E+08, 6.572279761239448E+08, 2.242072148978792E+08,
2460084.500000000, A.D. 2023-May-20 00:00:00.0000, -2.356425680692428E+08, 6.547212155214688E+08, 2.261787566730878E+08,
2460091.500000000, A.D. 2023-May-27 00:00:00.0000, -2.434270109879531E+08, 6.521332711431204E+08, 2.281222577079176E+08,
2460098.500000000, A.D. 2023-Jun-03 00:00:00.0000, -2.511814148668604E+08, 6.494647434760389E+08, 2.300375743555898E+08,
2460105.500000000, A.D. 2023-Jun-10 00:00:00.0000, -2.589049308874618E+08, 6.467162408301781E+08, 2.319245682929465E+08,
2460112.500000000, A.D. 2023-Jun-17 00:00:00.0000, -2.665967212955546E+08, 6.438883787639892E+08, 2.337831064590798E+08,
2460119.500000000, A.D. 2023-Jun-24 00:00:00.0000, -2.742559589627153E+08, 6.409817794153886E+08, 2.356130609453242E+08,
2460126.500000000, A.D. 2023-Jul-01 00:00:00.0000, -2.818818262630536E+08, 6.379970715662597E+08, 2.374143088809072E+08,
2460133.500000000, A.D. 2023-Jul-08 00:00:00.0000, -2.894735149393812E+08, 6.349348922628583E+08, 2.391867325349485E+08,
2460140.500000000, A.D. 2023-Jul-15 00:00:00.0000, -2.970302282354173E+08, 6.317958871625372E+08, 2.409302195205550E+08,
2460147.500000000, A.D. 2023-Jul-22 00:00:00.0000, -3.045511817726303E+08, 6.285807085721512E+08, 2.426446626932448E+08,
$$EOE